[
    {
        "Altitude(m)": 612513.9328637525,
        "Argument of Periapsis(deg)": 0.0,
        "Eccentricity": 0.0,
        "Inclination(deg)": 60.0,
        "Latitude(deg)": -28.13596731672014,
        "Longitude(deg)": -2.086827309080034,
        "Mean Anomaly(deg)": -147.27270000000004,
        "RAAN(deg)": 260.0,
        "Satellite Name": "Test1 1157",
        "Satellite Number": 1157,
        "Semi-Major Axis(m)": 6980739.136638005,
        "Time(s)": 0
    },
    {
        "Altitude(m)": 612708.300640228,
        "Argument of Periapsis(deg)": 0.00010418945913296404,
        "Eccentricity": 0.0,
        "Inclination(deg)": 60.0,
        "Latitude(deg)": -28.647705794990458,
        "Longitude(deg)": -1.7295956724992816,
        "Mean Anomaly(deg)": -146.65259385453817,
        "RAAN(deg)": 259.99957995086027,
        "Satellite Name": "Test1 1157",
        "Satellite Number": 1157,
        "Semi-Major Axis(m)": 6980739.136638005,
        "Time(s)": 10
    }
]